[{"id":"CAECE","type":"NO CLAVE","name":"Universidad CAECE","postal_code":"1026","address":"Junin 516","city":"Capital Federal","provincia":"CABA"},{"id":"ITBA","type":"CLAVE","name":"Instituto Tecnologico de Buenos Aires","postal_code":"C1106ACD","address":"Av. Eduardo Madero 399","city":"Capital Federal","provincia":"CABA"},{"id":"UADE","type":"NO CLAVE","name":"Universidad Argentina de la Empresa","postal_code":"C1073AAO","address":"Lima 717","city":"Capital Federal","provincia":"CABA"},{"id":"UAI","type":"NO CLAVE","name":"Universidad Abierta Interamericana","postal_code":"C1147AAH","address":"San Juan 951 ","city":"Capital Federal","provincia":"CABA"},{"id":"UAUSTRAL","type":"NO CLAVE","name":"Universidad Austral","postal_code":"C1063ABB","address":"Av.  Juan de Garay 125","city":"Capital Federal","provincia":"CABA"},{"id":"UBA","type":"CLAVE","name":"Universidad de Buenos Aires","postal_code":"C1425CKB","address":"Av. Figueroa Alcorta 2263","city":"Capital Federal","provincia":"CABA"},{"id":"UBELGRANO","type":"NO CLAVE","name":"Universidad de Belgrano","postal_code":"1426","address":"Av. Federico Lacroze 1959 PB","city":"Capital Federal","provincia":"CABA"},{"id":"UCA","type":"CLAVE","name":"Universidad Catolica Argentina","postal_code":"1107","address":"Av. Alicia M. de Justo 1400 P. Baja","city":"Capital Federal","provincia":"CABA"},{"id":"UCEMA","type":"NO CLAVE","name":"Universidad del CEMA","postal_code":"1054","address":"Avda Córdoba 374","city":"Capital Federal","provincia":"CABA"},{"id":"UCES","type":"NO CLAVE","name":"Universidad de Ciencias Empresariales y  Sociales","postal_code":"C1061ABA","address":"Paraguay 1401 Piso 8","city":"Capital Federal","provincia":"CABA"},{"id":"UNLAM","type":"NO CLAVE","name":"Universidad Nacional  de la Matanza","postal_code":"B1754JEC","address":"Florencio Varela 1903","city":"San Justo","provincia":"CABA"},{"id":"UNSAM","type":"NO CLAVE","name":"Universidad Nacional de San Martin","postal_code":"1650","address":"Caseros 2241","city":"San Martin","provincia":"CABA"},{"id":"UPALERMO","type":"NO CLAVE","name":"Universidad de Palermo","postal_code":"1175","address":"Maria Bravo 1050","city":"Capital Federal","provincia":"CABA"},{"id":"USALVADOR","type":"NO CLAVE","name":"Universidad Nacional del Salvador","postal_code":"C1058AAV","address":"Viamonte 1856","city":"Capital Federal","provincia":"CABA"},{"id":"UTDT","type":"NO CLAVE","name":"Universidad Torcuato Di Tella","postal_code":null,"address":"Miñones 2177","city":"Capital Federal","provincia":"CABA"},{"id":"UTN","type":"CLAVE","name":"Universidad Tecnologica Nacional","postal_code":"C1041AAJ","address":"Sarmiento 440","city":"Capital Federal","provincia":"CABA"},{"id":"UNC","type":"CLAVE","name":"Universidad Nacional de Cordoba","postal_code":"X5016GCA","address":"Av. Vélez Sarfield 1611.- Ciudad Universitaria.","city":"Córdoba","provincia":"CBA"},{"id":"UNRC","type":"NO CLAVE","name":"Universidad Nacional de Rio Cuarto","postal_code":"X5804BYA","address":"Ruta Nacional Nº36 km 601","city":"Río Cuarto","provincia":"CBA"},{"id":"UNPATAGONIA","type":"NO CLAVE","name":"Universidad Nacional de La Patagonia San Juan Bosco","postal_code":"9005","address":"Ciudad Universitaria Km 4","city":"Comodoro Rivadavia","provincia":"CHU"},{"id":"IUAERONAUTICO","type":"NO CLAVE","name":"Instituto Universitario Aeronautico","postal_code":"5022","address":"Av. Fuerza Aerera 6500","city":"Córdoba","provincia":"CBA"},{"id":"UNJU","type":"NO CLAVE","name":"Universidad Nacional de Jujuy","postal_code":"4600","address":"Av. Bolivia 1239","city":"San Salvador de Jujuy","provincia":"JUJ"},{"id":"UNCUYO","type":"CLAVE","name":"Universidad Nacional de Cuyo","postal_code":"M5502KFA","address":"Facultad de  Ingeniería Edificio de Gobierno Centro Unversitario","city":"Mendoza","provincia":"MDZ"},{"id":"UNCOMA","type":"NO CLAVE","name":"Universidad Nacional del Comahue","postal_code":"8300","address":"Buenos Aires 1400","city":"Neuquen","provincia":"NEU"},{"id":"UDESA","type":"NO CLAVE","name":"Universidad de San Andres","postal_code":"B1644BID","address":"Vito Dumas 284","city":"Victoria","provincia":"BUE"},{"id":"UNICEN","type":"NO CLAVE","name":"Universidad Nacional del Centro de Buenos Aires","postal_code":"B7000GHG","address":"Gral. Pinto 399, Campus Universitario","city":"Tandil","provincia":"BUE"},{"id":"UNLP","type":"CLAVE","name":"Universidad Nacional de La Plata","postal_code":"B1900TAG","address":"Calle 1 y 47","city":"La Plata","provincia":"BUE"},{"id":"UNLUJAN","type":"NO CLAVE","name":"Universidad Nacional de Lujan","postal_code":"6700","address":"Ruta 5 Av. Constitucion","city":"Luján","provincia":"BUE"},{"id":"UNLZ","type":"NO CLAVE","name":"Universidad de Lomas de Zamora","postal_code":"1832","address":"Ruta Provincial 4, Kilómetro 2","city":"Lomas de Zamora","provincia":"BUE"},{"id":"UNMDP","type":"CLAVE","name":"Universidad Nacional de Mar del Plata","postal_code":"B7602AYJ","address":" Funes 3250 - 2º Piso","city":"Mar del Plata","provincia":"BUE"},{"id":"UNMDP","type":"CLAVE","name":"Universidad Nacional de Mar del Plata","postal_code":"B7608FDQ","address":"Avenida Juan B. Justo 4302","city":"Mar del Plata","provincia":"BUE"},{"id":"UNSUR","type":"CLAVE","name":"Universidad Nacional del Sur","postal_code":"B8000FTN","address":"Avenida Colon 80","city":"Bahía Blanca","provincia":"BUE"},{"id":"IBALSEIRO","type":"NO CLAVE","name":"Instituto Balseiro","postal_code":"R8402AGP","address":"Av. Bustillo Km 9,500","city":"San Carlos de Bariloche","provincia":"RNG"},{"id":"UNSJ","type":"CLAVE","name":"Universidad Nacional de San Juan","postal_code":"5400","address":"Av. Ignacio de la Roza Oeste 590 -  Complejo Universitario Islas Malvinas Rivadavia ","city":"San Juan","provincia":"JUA"},{"id":"UNSAL","type":"NO CLAVE","name":"Universidad Nacional de Salta","postal_code":"4400","address":"Av. Bolivia 5150 - Complejo Universitario Gral San Martin","city":"Salta","provincia":"SAL"},{"id":"UCAROS","type":"NO CLAVE","name":"Universidad Catolica de Rosario","postal_code":"2000","address":"Mendoza 4197","city":"Rosario","provincia":"SFE"},{"id":"UNLIT","type":"NO CLAVE","name":"Universidad Nacional del Litoral","postal_code":"S3000ADQ","address":"Bv. Pelegrini 2750 1° Piso","city":"Santa Fe","provincia":"SFE"},{"id":"UNROS","type":"CLAVE","name":"Universidad Nacional de Rosario","postal_code":"S2000BTP","address":"Av. Pellegrini 250 - 1er. Piso","city":" Rosario","provincia":"SFE"},{"id":"UNSL","type":"NO CLAVE","name":"Universidad Nacional de San Luis","postal_code":"D5730EKQ","address":"Av. 25 de Mayo n° 384","city":"Villa Mercedes","provincia":"UIS"},{"id":"UNT","type":"NO CLAVE","name":"Universidad Nacional de Tucuman","postal_code":"T4002BLR","address":"Av. Independencia 1900","city":"San Miguel De Tucumán","provincia":"TUC"}]