[{"id":"BUE","desc":"Buenos Aires","institutions":[{"id":"UDESA","type":"NO CLAVE","name":"Universidad de San Andres","postal_code":"B1644BID","address":"Vito Dumas 284","city":"Victoria","provincia":"BUE"},{"id":"UNICEN","type":"NO CLAVE","name":"Universidad Nacional del Centro de Buenos Aires","postal_code":"B7000GHG","address":"Gral. Pinto 399, Campus Universitario","city":"Tandil","provincia":"BUE"},{"id":"UNLP","type":"CLAVE","name":"Universidad Nacional de La Plata","postal_code":"B1900TAG","address":"Calle 1 y 47","city":"La Plata","provincia":"BUE"},{"id":"UNLUJAN","type":"NO CLAVE","name":"Universidad Nacional de Lujan","postal_code":"6700","address":"Ruta 5 Av. Constitucion","city":"Luján","provincia":"BUE"},{"id":"UNLZ","type":"NO CLAVE","name":"Universidad de Lomas de Zamora","postal_code":"1832","address":"Ruta Provincial 4, Kilómetro 2","city":"Lomas de Zamora","provincia":"BUE"},{"id":"UNMDP","type":"CLAVE","name":"Universidad Nacional de Mar del Plata","postal_code":"B7602AYJ","address":" Funes 3250 - 2º Piso","city":"Mar del Plata","provincia":"BUE"},{"id":"UNMDP","type":"CLAVE","name":"Universidad Nacional de Mar del Plata","postal_code":"B7608FDQ","address":"Avenida Juan B. Justo 4302","city":"Mar del Plata","provincia":"BUE"},{"id":"UNSUR","type":"CLAVE","name":"Universidad Nacional del Sur","postal_code":"B8000FTN","address":"Avenida Colon 80","city":"Bahía Blanca","provincia":"BUE"}]},{"id":"CAT","desc":"Catamarca","institutions":[]},{"id":"CHA","desc":"Chaco","institutions":[]},{"id":"CHU","desc":"Chubut","institutions":[{"id":"UNPATAGONIA","type":"NO CLAVE","name":"Universidad Nacional de La Patagonia San Juan Bosco","postal_code":"9005","address":"Ciudad Universitaria Km 4","city":"Comodoro Rivadavia","provincia":"CHU"}]},{"id":"CBA","desc":"Córdoba","institutions":[{"id":"UNC","type":"CLAVE","name":"Universidad Nacional de Cordoba","postal_code":"X5016GCA","address":"Av. Vélez Sarfield 1611.- Ciudad Universitaria.","city":"Córdoba","provincia":"CBA"},{"id":"UNRC","type":"NO CLAVE","name":"Universidad Nacional de Rio Cuarto","postal_code":"X5804BYA","address":"Ruta Nacional Nº36 km 601","city":"Río Cuarto","provincia":"CBA"},{"id":"IUAERONAUTICO","type":"NO CLAVE","name":"Instituto Universitario Aeronautico","postal_code":"5022","address":"Av. Fuerza Aerera 6500","city":"Córdoba","provincia":"CBA"}]},{"id":"CRR","desc":"Corrientes","institutions":[]},{"id":"ERS","desc":"Entre Ríos","institutions":[]},{"id":"FOR","desc":"Formosa","institutions":[]},{"id":"JUJ","desc":"Jujuy","institutions":[{"id":"UNJU","type":"NO CLAVE","name":"Universidad Nacional de Jujuy","postal_code":"4600","address":"Av. Bolivia 1239","city":"San Salvador de Jujuy","provincia":"JUJ"}]},{"id":"LPA","desc":"La Pampa","institutions":[]},{"id":"LAR","desc":"La Rioja","institutions":[]},{"id":"DOZ","desc":"Mendoza","institutions":[]},{"id":"MIS","desc":"Misiones","institutions":[]},{"id":"NEU","desc":"Neuquén","institutions":[{"id":"UNCOMA","type":"NO CLAVE","name":"Universidad Nacional del Comahue","postal_code":"8300","address":"Buenos Aires 1400","city":"Neuquen","provincia":"NEU"}]},{"id":"RNG","desc":"Río Negro","institutions":[{"id":"IBALSEIRO","type":"NO CLAVE","name":"Instituto Balseiro","postal_code":"R8402AGP","address":"Av. Bustillo Km 9,500","city":"San Carlos de Bariloche","provincia":"RNG"}]},{"id":"SAL","desc":"Salta","institutions":[{"id":"UNSAL","type":"NO CLAVE","name":"Universidad Nacional de Salta","postal_code":"4400","address":"Av. Bolivia 5150 - Complejo Universitario Gral San Martin","city":"Salta","provincia":"SAL"}]},{"id":"JUA","desc":"San Juan","institutions":[{"id":"UNSJ","type":"CLAVE","name":"Universidad Nacional de San Juan","postal_code":"5400","address":"Av. Ignacio de la Roza Oeste 590 -  Complejo Universitario Islas Malvinas Rivadavia ","city":"San Juan","provincia":"JUA"}]},{"id":"UIS","desc":"San Luis","institutions":[{"id":"UNSL","type":"NO CLAVE","name":"Universidad Nacional de San Luis","postal_code":"D5730EKQ","address":"Av. 25 de Mayo n° 384","city":"Villa Mercedes","provincia":"UIS"}]},{"id":"SCZ","desc":"Santa Cruz","institutions":[]},{"id":"SFE","desc":"Santa Fé","institutions":[{"id":"UCAROS","type":"NO CLAVE","name":"Universidad Catolica de Rosario","postal_code":"2000","address":"Mendoza 4197","city":"Rosario","provincia":"SFE"},{"id":"UNLIT","type":"NO CLAVE","name":"Universidad Nacional del Litoral","postal_code":"S3000ADQ","address":"Bv. Pelegrini 2750 1° Piso","city":"Santa Fe","provincia":"SFE"},{"id":"UNROS","type":"CLAVE","name":"Universidad Nacional de Rosario","postal_code":"S2000BTP","address":"Av. Pellegrini 250 - 1er. Piso","city":" Rosario","provincia":"SFE"}]},{"id":"SDE","desc":"Santiago del Estero","institutions":[]},{"id":"TDF","desc":"Tierra del Fuego","institutions":[]},{"id":"TUC","desc":"Tucumán","institutions":[{"id":"UNT","type":"NO CLAVE","name":"Universidad Nacional de Tucuman","postal_code":"T4002BLR","address":"Av. Independencia 1900","city":"San Miguel De Tucumán","provincia":"TUC"}]}]